ONEWEB-0461             
1 51649U 22012AD  26015.44552016  .00000020  00000+0  19236-4 0  9999
2 51649  87.9093  36.2044 0001814  97.2992 262.8346 13.17650444193777
ONEWEB-0463             
1 51650U 22012AE  26015.50290799  .00002857  00000+0  73244-2 0  9992
2 51650  87.9078  36.2310 0001672  95.8816 264.2506 13.17635728193568
ONEWEB-0464             
1 51651U 22012AF  26015.16519522 -.00000581  00000+0 -16997-2 0  9999
2 51651  87.8773  66.7883 0001602  95.0666 265.0644 13.10373693189280
ONEWEB-0468             
1 51652U 22012AG  26015.17183921 -.00000531  00000+0 -15574-2 0  9996
2 51652  87.8778  66.7811 0001749  91.9789 268.1539 13.10374793189267
ONEWEB-0473             
1 51653U 22012AH  26015.15689888 -.00000493  00000+0 -14489-2 0  9999
2 51653  87.8770  66.7867 0001845  95.9673 264.1665 13.10371628189264
ONEWEB-0474             
1 51654U 22012AJ  26015.14860576 -.00000146  00000+0 -45577-3 0  9992
2 51654  87.8779  66.7577 0001683  91.0655 269.0665 13.10370255189257
ONEWEB-0475             
1 51655U 22012AK  26015.51470795  .00000003  00000+0 -25394-4 0  9991
2 51655  87.9083  36.2197 0001986  71.1222 289.0124 13.17649240193585
ONEWEB-0490             
1 54113U 22138A   26014.83303503  .00000064  00000+0  12744-3 0  9998
2 54113  87.9238 335.4750 0001667  75.5723 284.5594 13.19725621156601
